[
  {
    "OBJECT_NAME": "STARLINK-3090",
    "OBJECT_ID": "21082C",
    "EPOCH": "2025-11-11T04:57:34.558272",
    "MEAN_MOTION": 14.9834254,
    "ECCENTRICITY": 0.0002203,
    "INCLINATION": 69.9997,
    "RA_OF_ASC_NODE": 233.0628,
    "ARG_OF_PERICENTER": 274.975,
    "MEAN_ANOMALY": 85.1158,
    "EPHEMERIS_TYPE": 0,
    "CLASSIFICATION_TYPE": "U",
    "NORAD_CAT_ID": 49132,
    "ELEMENT_SET_NO": 999,
    "REV_AT_EPOCH": 22823,
    "BSTAR": 0.0001897,
    "MEAN_MOTION_DOT": 2.172e-05,
    "MEAN_MOTION_DDOT": 0.0,
    "TLE_LINE1": "1 49132U 21082C   25315.20664998  .00002172  00000+0  18970-3 0  9991",
    "TLE_LINE2": "2 49132  69.9997 233.0628 0002203 274.9750  85.1158 14.98342540228230",
    "COMMENT": "Grouped by shell and plane from TLE"
  },
  {
    "OBJECT_NAME": "STARLINK-3077",
    "OBJECT_ID": "21082D",
    "EPOCH": "2025-11-11T03:45:29.381184",
    "MEAN_MOTION": 14.98352708,
    "ECCENTRICITY": 0.0002724,
    "INCLINATION": 70.0007,
    "RA_OF_ASC_NODE": 233.3161,
    "ARG_OF_PERICENTER": 273.948,
    "MEAN_ANOMALY": 86.1368,
    "EPHEMERIS_TYPE": 0,
    "CLASSIFICATION_TYPE": "U",
    "NORAD_CAT_ID": 49133,
    "ELEMENT_SET_NO": 999,
    "REV_AT_EPOCH": 22822,
    "BSTAR": 0.0,
    "MEAN_MOTION_DOT": -1.461e-05,
    "MEAN_MOTION_DDOT": 0.0,
    "TLE_LINE1": "1 49133U 21082D   25315.15659006 -.00001461  00000+0 -11463-3 0  9992",
    "TLE_LINE2": "2 49133  70.0007 233.3161 0002724 273.9480  86.1368 14.98352708228228",
    "COMMENT": "Grouped by shell and plane from TLE"
  },
  {
    "OBJECT_NAME": "STARLINK-3078",
    "OBJECT_ID": "21082E",
    "EPOCH": "2025-11-11T05:15:37.325664",
    "MEAN_MOTION": 14.98334991,
    "ECCENTRICITY": 0.0002532,
    "INCLINATION": 70.0004,
    "RA_OF_ASC_NODE": 233.1623,
    "ARG_OF_PERICENTER": 263.073,
    "MEAN_ANOMALY": 97.0141,
    "EPHEMERIS_TYPE": 0,
    "CLASSIFICATION_TYPE": "U",
    "NORAD_CAT_ID": 49134,
    "ELEMENT_SET_NO": 999,
    "REV_AT_EPOCH": 22943,
    "BSTAR": 0.00020022,
    "MEAN_MOTION_DOT": 2.297e-05,
    "MEAN_MOTION_DDOT": 0.0,
    "TLE_LINE1": "1 49134U 21082E   25315.21918201  .00002297  00000+0  20022-3 0  9992",
    "TLE_LINE2": "2 49134  70.0004 233.1623 0002532 263.0730  97.0141 14.98334991229430",
    "COMMENT": "Grouped by shell and plane from TLE"
  },
  {
    "OBJECT_NAME": "STARLINK-3058",
    "OBJECT_ID": "21082J",
    "EPOCH": "2025-11-11T05:09:36.792288",
    "MEAN_MOTION": 14.98353929,
    "ECCENTRICITY": 0.0002855,
    "INCLINATION": 70.0006,
    "RA_OF_ASC_NODE": 233.1758,
    "ARG_OF_PERICENTER": 265.6322,
    "MEAN_ANOMALY": 94.4511,
    "EPHEMERIS_TYPE": 0,
    "CLASSIFICATION_TYPE": "U",
    "NORAD_CAT_ID": 49138,
    "ELEMENT_SET_NO": 999,
    "REV_AT_EPOCH": 22823,
    "BSTAR": 0.0006370400000000001,
    "MEAN_MOTION_DOT": 7.521e-05,
    "MEAN_MOTION_DDOT": 0.0,
    "TLE_LINE1": "1 49138U 21082J   25315.21500917  .00007521  00000+0  63704-3 0  9996",
    "TLE_LINE2": "2 49138  70.0006 233.1758 0002855 265.6322  94.4511 14.98353929228239",
    "COMMENT": "Grouped by shell and plane from TLE"
  },
  {
    "OBJECT_NAME": "STARLINK-3093",
    "OBJECT_ID": "21082M",
    "EPOCH": "2025-11-11T05:03:36.776448",
    "MEAN_MOTION": 14.98336916,
    "ECCENTRICITY": 0.0002893,
    "INCLINATION": 70.0,
    "RA_OF_ASC_NODE": 233.1903,
    "ARG_OF_PERICENTER": 269.8014,
    "MEAN_ANOMALY": 90.2814,
    "EPHEMERIS_TYPE": 0,
    "CLASSIFICATION_TYPE": "U",
    "NORAD_CAT_ID": 49141,
    "ELEMENT_SET_NO": 999,
    "REV_AT_EPOCH": 22943,
    "BSTAR": 0.00024683,
    "MEAN_MOTION_DOT": 2.854e-05,
    "MEAN_MOTION_DDOT": 0.0,
    "TLE_LINE1": "1 49141U 21082M   25315.21084232  .00002854  00000+0  24683-3 0  9994",
    "TLE_LINE2": "2 49141  70.0000 233.1903 0002893 269.8014  90.2814 14.98336916229435",
    "COMMENT": "Grouped by shell and plane from TLE"
  },
  {
    "OBJECT_NAME": "STARLINK-3100",
    "OBJECT_ID": "21082Q",
    "EPOCH": "2025-11-11T04:51:35.196480",
    "MEAN_MOTION": 14.98333694,
    "ECCENTRICITY": 0.0002474,
    "INCLINATION": 70.0,
    "RA_OF_ASC_NODE": 233.1889,
    "ARG_OF_PERICENTER": 273.3659,
    "MEAN_ANOMALY": 86.7217,
    "EPHEMERIS_TYPE": 0,
    "CLASSIFICATION_TYPE": "U",
    "NORAD_CAT_ID": 49144,
    "ELEMENT_SET_NO": 999,
    "REV_AT_EPOCH": 22823,
    "BSTAR": 0.00022784,
    "MEAN_MOTION_DOT": 2.627e-05,
    "MEAN_MOTION_DDOT": 0.0,
    "TLE_LINE1": "1 49144U 21082Q   25315.20249070  .00002627  00000+0  22784-3 0  9997",
    "TLE_LINE2": "2 49144  70.0000 233.1889 0002474 273.3659  86.7217 14.98333694228235",
    "COMMENT": "Grouped by shell and plane from TLE"
  },
  {
    "OBJECT_NAME": "STARLINK-3056",
    "OBJECT_ID": "21082AF",
    "EPOCH": "2025-11-11T04:33:33.845184",
    "MEAN_MOTION": 14.9833556,
    "ECCENTRICITY": 0.0002683,
    "INCLINATION": 69.9998,
    "RA_OF_ASC_NODE": 233.2314,
    "ARG_OF_PERICENTER": 268.7308,
    "MEAN_ANOMALY": 91.3544,
    "EPHEMERIS_TYPE": 0,
    "CLASSIFICATION_TYPE": "U",
    "NORAD_CAT_ID": 49159,
    "ELEMENT_SET_NO": 999,
    "REV_AT_EPOCH": 22932,
    "BSTAR": 0.00013435,
    "MEAN_MOTION_DOT": 1.511e-05,
    "MEAN_MOTION_DDOT": 0.0,
    "TLE_LINE1": "1 49159U 21082AF  25315.18997506  .00001511  00000+0  13435-3 0  9998",
    "TLE_LINE2": "2 49159  69.9998 233.2314 0002683 268.7308  91.3544 14.98335560229329",
    "COMMENT": "Grouped by shell and plane from TLE"
  },
  {
    "OBJECT_NAME": "STARLINK-3095",
    "OBJECT_ID": "21082AG",
    "EPOCH": "2025-11-11T04:15:31.787136",
    "MEAN_MOTION": 14.98344035,
    "ECCENTRICITY": 0.0002879,
    "INCLINATION": 69.9995,
    "RA_OF_ASC_NODE": 233.2473,
    "ARG_OF_PERICENTER": 275.6496,
    "MEAN_ANOMALY": 84.4334,
    "EPHEMERIS_TYPE": 0,
    "CLASSIFICATION_TYPE": "U",
    "NORAD_CAT_ID": 49160,
    "ELEMENT_SET_NO": 999,
    "REV_AT_EPOCH": 22929,
    "BSTAR": 0.0,
    "MEAN_MOTION_DOT": -1e-06,
    "MEAN_MOTION_DDOT": 0.0,
    "TLE_LINE1": "1 49160U 21082AG  25315.17745124 -.00000100  00000+0 -57918-6 0  9998",
    "TLE_LINE2": "2 49160  69.9995 233.2473 0002879 275.6496  84.4334 14.98344035229299",
    "COMMENT": "Grouped by shell and plane from TLE"
  },
  {
    "OBJECT_NAME": "STARLINK-3080",
    "OBJECT_ID": "21082AH",
    "EPOCH": "2025-11-11T04:21:32.515776",
    "MEAN_MOTION": 14.98335514,
    "ECCENTRICITY": 0.0002718,
    "INCLINATION": 70.0004,
    "RA_OF_ASC_NODE": 233.2322,
    "ARG_OF_PERICENTER": 264.6567,
    "MEAN_ANOMALY": 95.4282,
    "EPHEMERIS_TYPE": 0,
    "CLASSIFICATION_TYPE": "U",
    "NORAD_CAT_ID": 49161,
    "ELEMENT_SET_NO": 999,
    "REV_AT_EPOCH": 22930,
    "BSTAR": 0.00015778,
    "MEAN_MOTION_DOT": 1.79e-05,
    "MEAN_MOTION_DDOT": 0.0,
    "TLE_LINE1": "1 49161U 21082AH  25315.18162634  .00001790  00000+0  15778-3 0  9998",
    "TLE_LINE2": "2 49161  70.0004 233.2322 0002718 264.6567  95.4282 14.98335514229304",
    "COMMENT": "Grouped by shell and plane from TLE"
  },
  {
    "OBJECT_NAME": "STARLINK-3052",
    "OBJECT_ID": "21082AM",
    "EPOCH": "2025-11-11T04:09:32.186880",
    "MEAN_MOTION": 14.98339587,
    "ECCENTRICITY": 0.0002545,
    "INCLINATION": 70.0013,
    "RA_OF_ASC_NODE": 233.2875,
    "ARG_OF_PERICENTER": 271.7577,
    "MEAN_ANOMALY": 88.3291,
    "EPHEMERIS_TYPE": 0,
    "CLASSIFICATION_TYPE": "U",
    "NORAD_CAT_ID": 49165,
    "ELEMENT_SET_NO": 999,
    "REV_AT_EPOCH": 22942,
    "BSTAR": 0.00041061,
    "MEAN_MOTION_DOT": 4.811e-05,
    "MEAN_MOTION_DDOT": 0.0,
    "TLE_LINE1": "1 49165U 21082AM  25315.17328920  .00004811  00000+0  41061-3 0  9994",
    "TLE_LINE2": "2 49165  70.0013 233.2875 0002545 271.7577  88.3291 14.98339587229427",
    "COMMENT": "Grouped by shell and plane from TLE"
  },
  {
    "OBJECT_NAME": "STARLINK-3054",
    "OBJECT_ID": "21082AP",
    "EPOCH": "2025-11-11T05:33:38.606976",
    "MEAN_MOTION": 14.98338119,
    "ECCENTRICITY": 0.0002886,
    "INCLINATION": 69.9996,
    "RA_OF_ASC_NODE": 233.1202,
    "ARG_OF_PERICENTER": 260.9059,
    "MEAN_ANOMALY": 99.1774,
    "EPHEMERIS_TYPE": 0,
    "CLASSIFICATION_TYPE": "U",
    "NORAD_CAT_ID": 49167,
    "ELEMENT_SET_NO": 999,
    "REV_AT_EPOCH": 22943,
    "BSTAR": 0.00011999000000000001,
    "MEAN_MOTION_DOT": 1.339e-05,
    "MEAN_MOTION_DDOT": 0.0,
    "TLE_LINE1": "1 49167U 21082AP  25315.23169684  .00001339  00000+0  11999-3 0  9992",
    "TLE_LINE2": "2 49167  69.9996 233.1202 0002886 260.9059  99.1774 14.98338119229439",
    "COMMENT": "Grouped by shell and plane from TLE"
  },
  {
    "OBJECT_NAME": "STARLINK-3107",
    "OBJECT_ID": "21082AT",
    "EPOCH": "2025-11-11T05:13:40.671840",
    "MEAN_MOTION": 15.0494654,
    "ECCENTRICITY": 0.0001913,
    "INCLINATION": 69.9968,
    "RA_OF_ASC_NODE": 231.0918,
    "ARG_OF_PERICENTER": 332.786,
    "MEAN_ANOMALY": 27.3202,
    "EPHEMERIS_TYPE": 0,
    "CLASSIFICATION_TYPE": "U",
    "NORAD_CAT_ID": 49171,
    "ELEMENT_SET_NO": 999,
    "REV_AT_EPOCH": 22944,
    "BSTAR": 0.0014041000000000001,
    "MEAN_MOTION_DOT": 0.00019893,
    "MEAN_MOTION_DDOT": 0.0,
    "TLE_LINE1": "1 49171U 21082AT  25315.21783185  .00019893  00000+0  14041-2 0  9997",
    "TLE_LINE2": "2 49171  69.9968 231.0918 0001913 332.7860  27.3202 15.04946540229443",
    "COMMENT": "Grouped by shell and plane from TLE"
  },
  {
    "OBJECT_NAME": "STARLINK-3086",
    "OBJECT_ID": "21082BA",
    "EPOCH": "2025-11-11T04:27:30.016512",
    "MEAN_MOTION": 14.98372685,
    "ECCENTRICITY": 0.0002873,
    "INCLINATION": 69.9996,
    "RA_OF_ASC_NODE": 233.2296,
    "ARG_OF_PERICENTER": 278.1876,
    "MEAN_ANOMALY": 81.8957,
    "EPHEMERIS_TYPE": 0,
    "CLASSIFICATION_TYPE": "U",
    "NORAD_CAT_ID": 49178,
    "ELEMENT_SET_NO": 999,
    "REV_AT_EPOCH": 22938,
    "BSTAR": 0.0003838,
    "MEAN_MOTION_DOT": 4.494e-05,
    "MEAN_MOTION_DDOT": 0.0,
    "TLE_LINE1": "1 49178U 21082BA  25315.18576408  .00004494  00000+0  38380-3 0  9992",
    "TLE_LINE2": "2 49178  69.9996 233.2296 0002873 278.1876  81.8957 14.98372685229380",
    "COMMENT": "Grouped by shell and plane from TLE"
  }
]